     2.10           NAVIGATION                              RINEX VERSION / TYPE
fic2rin                                 06/13/2008 01:08:14 PGM / RUN BY / DATE
                                                            END OF HEADER
30 08  6 12 20  0  0.0  .808378681540D-04  .181898940355D-11  .000000000000D+00
     .530000000000D+02 -.950000000000D+01  .522021744301D-08  .267956958237D+00
    -.342726707458D-06  .106714834692D-01  .609830021858D-05  .515371956062D+04
     .417600000000D+06 -.132247805595D-06 -.254890941107D+01  .447034835815D-07
     .948935866371D+00  .256062500000D+03  .137339946973D+01 -.854642742158D-08
    -.571452374714D-10  .100000000000D+01  .148300000000D+04  .000000000000D+00
     .240000000000D+01  .000000000000D+00 -.838190317154D-08  .530000000000D+02
     .410406000000D+06  .400000000000D+01
31 08  6 12 20  0  0.0 -.232290476561D-04 -.136424205266D-11  .000000000000D+00
     .840000000000D+02 -.185312500000D+02  .445839999597D-08  .268804019989D+01
    -.698491930962D-06  .669248064514D-02  .884942710400D-05  .515375976944D+04
     .417600000000D+06  .245869159698D-06  .272375958745D+01 -.260770320892D-07
     .968292774149D+00  .209500000000D+03 -.122222787326D+01 -.786854204207D-08
     .242510101519D-09  .100000000000D+01  .148300000000D+04  .000000000000D+00
     .340000000000D+01  .000000000000D+00 -.130385160446D-07  .840000000000D+02
     .410406000000D+06  .400000000000D+01
32 08  6 12 20  0  0.0  .296928454190D-03  .432009983342D-11  .000000000000D+00
     .160000000000D+02  .217187500000D+02  .437196782429D-08 -.238795773911D+01
     .130198895931D-05  .137042088900D-01  .284239649773D-05  .515463959694D+04
     .417600000000D+06  .150874257088D-06  .717031024706D+00  .203028321266D-06
     .969093578432D+00  .321687500000D+03 -.130088656310D+01 -.800461913880D-08
     .137862885400D-09  .100000000000D+01  .148300000000D+04  .000000000000D+00
     .240000000000D+01  .000000000000D+00 -.279396772385D-08  .160000000000D+02
     .410406000000D+06  .400000000000D+01
25 08  6 12 19 59 28.0 -.172487925738D-03 -.272848410532D-11  .000000000000D+00
     .250000000000D+02 -.236250000000D+02  .449411576939D-08  .104307216951D+01
    -.133737921715D-05  .117251656484D-01  .859238207340D-05  .515370370293D+04
     .417568000000D+06 -.763684511185D-07  .263238417206D+01 -.324100255966D-06
     .965228481572D+00  .220093750000D+03 -.124665047428D+01 -.805069248651D-08
     .300012496725D-09  .100000000000D+01  .148300000000D+04  .000000000000D+00
     .240000000000D+01  .000000000000D+00 -.745058059692D-08  .250000000000D+02
     .413706000000D+06  .400000000000D+01
27 08  6 12 19 59 44.0  .195162370801D-03  .272848410532D-11  .000000000000D+00
     .360000000000D+02 -.254687500000D+02  .449947313540D-08  .106911325386D+01
    -.143609941006D-05  .210815792670D-01  .910460948944D-05  .515376782036D+04
     .417584000000D+06 -.448897480965D-06  .266717915047D+01 -.188127160072D-06
     .969832520297D+00  .218375000000D+03 -.170532375861D+01 -.824641492485D-08
     .249653256203D-09  .100000000000D+01  .148300000000D+04  .000000000000D+00
     .240000000000D+01  .000000000000D+00 -.419095158577D-08  .360000000000D+02
     .415416000000D+06  .400000000000D+01
16 08  6 12 19 59 28.0  .121486373246D-03 -.147792889038D-11  .000000000000D+00
     .140000000000D+02 -.146875000000D+02  .473626871317D-08  .555629398640D+00
    -.101327896118D-05  .478456390556D-02  .586174428463D-05  .515360483742D+04
     .417568000000D+06  .614672899246D-07 -.249045155573D+01 -.335276126862D-07
     .965756927081D+00  .267187500000D+03 -.478813053697D+00 -.816069706865D-08
    -.106790162525D-09  .100000000000D+01  .148300000000D+04  .000000000000D+00
     .240000000000D+01  .000000000000D+00 -.977888703346D-08  .140000000000D+02
     .416706000000D+06  .400000000000D+01
16 08  6 12 21 59 28.0  .121475663036D-03 -.147792889038D-11  .000000000000D+00
     .390000000000D+02 -.122812500000D+02  .484805908398D-08  .160579055610D+01
    -.407919287682D-06  .478460197337D-02  .570714473724D-05  .515360538673D+04
     .424768000000D+06  .875443220139D-07 -.249051019972D+01 -.931322574615D-08
     .965756198548D+00  .266375000000D+03 -.478749289487D+00 -.814605360154D-08
    -.106433004790D-09  .100000000000D+01  .148300000000D+04  .000000000000D+00
     .240000000000D+01  .000000000000D+00 -.977888703346D-08  .390000000000D+02
     .417606000000D+06  .400000000000D+01
25 08  6 12 21 59 28.0 -.172507017851D-03 -.272848410532D-11  .000000000000D+00
     .270000000000D+02 -.324062500000D+02  .442268422255D-08  .209340176883D+01
    -.165030360222D-05  .117251925403D-01  .894069671631D-05  .515370002747D+04
     .424768000000D+06  .167638063431D-06  .263232820374D+01 -.633299350739D-07
     .965231821414D+00  .209156250000D+03 -.124681726596D+01 -.771532137410D-08
     .222509268404D-09  .100000000000D+01  .148300000000D+04  .000000000000D+00
     .240000000000D+01  .000000000000D+00 -.745058059692D-08  .270000000000D+02
     .417606000000D+06  .400000000000D+01
27 08  6 12 21 59 44.0  .195182394236D-03  .272848410532D-11  .000000000000D+00
     .370000000000D+02 -.311250000000D+02  .427589239380D-08  .211928294599D+01
    -.176019966602D-05  .210821187356D-01  .897236168385D-05  .515376591492D+04
     .424784000000D+06  .249594449997D-06  .266712193867D+01 -.385567545891D-06
     .969837739989D+00  .210093750000D+03 -.170537095088D+01 -.755388607825D-08
     .310370071016D-09  .100000000000D+01  .148300000000D+04  .000000000000D+00
     .240000000000D+01  .000000000000D+00 -.419095158577D-08  .370000000000D+02
     .417606000000D+06  .400000000000D+01
 2 08  6 12 22  0  0.0  .206117518246D-03 -.227373675443D-12  .000000000000D+00
     .310000000000D+02  .700937500000D+02  .469519557374D-08 -.483325834130D+00
     .365637242794D-05  .878282834310D-02  .828318297863D-05  .515374069405D+04
     .424800000000D+06 -.260770320892D-07 -.423701879467D+00 -.277534127235D-06
     .943515024891D+00  .215750000000D+03  .257869121645D+01 -.817926927082D-08
    -.892894335490D-11  .100000000000D+01  .148300000000D+04  .000000000000D+00
     .240000000000D+01  .000000000000D+00 -.172294676304D-07  .310000000000D+02
     .417606000000D+06  .400000000000D+01
 3 08  6 12 22  0  0.0  .241263769567D-03  .511590769747D-11  .000000000000D+00
     .710000000000D+02 -.195312500000D+02  .544558397329D-08 -.886235689034D+00
    -.108964741230D-05  .106689722743D-01  .855512917042D-05  .515368312836D+04
     .424800000000D+06  .160187482834D-06 -.156774969895D+01  .203028321266D-06
     .925513864739D+00  .194406250000D+03  .815413848414D+00 -.850213986254D-08
    -.544665544649D-09  .100000000000D+01  .148300000000D+04  .000000000000D+00
     .340000000000D+01  .000000000000D+00 -.419095158577D-08  .710000000000D+02
     .417606000000D+06  .400000000000D+01
 4 08  6 12 22  0  0.0 -.895033590496D-04 -.909494701773D-11  .000000000000D+00
     .220000000000D+02  .735000000000D+02  .469090968093D-08  .220567589354D+01
     .375695526600D-05  .807015015744D-02  .843964517117D-05  .515379490662D+04
     .424800000000D+06 -.137835741043D-06 -.404869225937D+00 -.558793544769D-08
     .942825623283D+00  .210625000000D+03  .377378596042D+00 -.812783855710D-08
    -.575023952056D-10  .100000000000D+01  .148300000000D+04  .000000000000D+00
     .240000000000D+01  .000000000000D+00 -.605359673500D-08  .220000000000D+02
     .417606000000D+06  .400000000000D+01
 5 08  6 12 22  0  0.0 -.392765738070D-03  .920863385545D-11  .000000000000D+00
     .230000000000D+02 -.130312500000D+02  .525771900510D-08  .183177202783D+01
    -.936910510063D-06  .885369221214D-02  .609830021858D-05  .515357433701D+04
     .424800000000D+06 -.108033418655D-06 -.260064632233D+01 -.221654772758D-06
     .942872250871D+00  .252000000000D+03  .122679861743D+01 -.831677499849D-08
     .732173355102D-10  .100000000000D+01  .148300000000D+04  .000000000000D+00
     .240000000000D+01  .000000000000D+00 -.419095158577D-08  .230000000000D+02
     .417606000000D+06  .400000000000D+01
 6 08  6 12 22  0  0.0  .146775972098D-03  .636646291241D-11  .000000000000D+00
     .126000000000D+03 -.219375000000D+02  .517807283037D-08  .178550940723D+01
    -.148639082909D-05  .593992474023D-02  .904314219952D-05  .515373106766D+04
     .424800000000D+06  .521540641785D-07 -.150296378372D+01 -.145286321640D-06
     .933076905438D+00  .186875000000D+03 -.166105060858D+01 -.825141513313D-08
    -.540022494104D-09  .100000000000D+01  .148300000000D+04  .000000000000D+00
     .240000000000D+01  .000000000000D+00 -.465661287308D-08  .126000000000D+03
     .417606000000D+06  .400000000000D+01
 7 08  6 12 22  0  0.0 -.222530215979D-04  .738964445191D-11  .000000000000D+00
     .610000000000D+02 -.179687500000D+02  .454840374499D-08 -.211611170679D+01
    -.841915607452D-06  .175259390380D-02  .914186239243D-05  .515371045303D+04
     .424800000000D+06 -.465661287308D-07  .272749451240D+01 -.335276126862D-07
     .962802407488D+00  .208281250000D+03  .261974242254D+01 -.792283001767D-08
     .345371528968D-09  .100000000000D+01  .148300000000D+04  .000000000000D+00
     .240000000000D+01  .000000000000D+00 -.107102096081D-07  .610000000000D+02
     .417606000000D+06  .400000000000D+01
 8 08  6 12 22  0  0.0 -.157161615789D-03 -.159161572810D-11  .000000000000D+00
     .510000000000D+02 -.142187500000D+02  .401195282822D-08 -.296407871551D+01
    -.542029738426D-06  .102050595451D-01  .893883407116D-05  .515360941696D+04
     .424800000000D+06 -.147148966789D-06  .278060195114D+01 -.372529029846D-08
     .984006754048D+00  .222312500000D+03  .288296473418D+01 -.753638534927D-08
     .396802242692D-09  .100000000000D+01  .148300000000D+04  .000000000000D+00
     .340000000000D+01  .000000000000D+00 -.372529029846D-08  .510000000000D+02
     .417606000000D+06  .400000000000D+01
